     2              NAVIGATION DATA                         RINEX VERSION / TYPE
CCRINEXN V1.6.0 UX  CDDIS               13-OCT-16 15:33     PGM / RUN BY / DATE 
IGS BROADCAST EPHEMERIS FILE                                COMMENT             
    0.1583D-07  0.0000D+00 -0.1192D-06  0.0000D+00          ION ALPHA           
    0.1106D+06  0.0000D+00 -0.2621D+06  0.6554D+05          ION BETA            
   -0.186264514923D-08-0.799360577730D-14   319488     1918 DELTA-UTC: A0,A1,T,W
    17                                                      LEAP SECONDS        
                                                            END OF HEADER       
32 16 10 12 12  0  0.0-0.151241198182D-03-0.156887836056D-10 0.000000000000D+00
    0.120000000000D+02 0.550625000000D+02 0.472626829662D-08-0.304253545683D+01
    0.292807817459D-05 0.626798253506D-03 0.600889325142D-05 0.515364783478D+04
    0.302400000000D+06-0.745058059692D-08-0.258371834279D+01 0.167638063431D-07
    0.959198463449D+00 0.261406250000D+03-0.241112265776D+01-0.824248618978D-08
    0.350371737246D-09 0.100000000000D+01 0.191800000000D+04 0.000000000000D+00
    0.200000000000D+01 0.000000000000D+00 0.931322574616D-09 0.120000000000D+02
    0.295200000000D+06 0.400000000000D+01 0.000000000000D+00 0.000000000000D+00
14 16 10 12 13 59 44.0-0.397143885493D-04-0.193267624127D-11 0.000000000000D+00
    0.300000000000D+01 0.509375000000D+02 0.465912264259D-08-0.294369731889D+01
    0.272691249847D-05 0.873408396728D-02 0.553578138351D-05 0.515358652496D+04
    0.309584000000D+06 0.465661287308D-07-0.250098344823D+01-0.633299350738D-07
    0.963348807390D+00 0.272906250000D+03-0.194405813970D+01-0.807747931658D-08
    0.266439669710D-09 0.100000000000D+01 0.191800000000D+04 0.000000000000D+00
    0.200000000000D+01 0.000000000000D+00-0.931322574616D-08 0.300000000000D+01
    0.308220000000D+06 0.400000000000D+01 0.000000000000D+00 0.000000000000D+00
20 16 10 12 13 59 44.0 0.440425705165D-03 0.193267624127D-11 0.000000000000D+00
    0.150000000000D+02-0.146562500000D+02 0.508914066444D-08 0.290488800696D+01
   -0.786036252975D-06 0.470207433682D-02 0.124610960484D-04 0.515360139656D+04
    0.309584000000D+06 0.558793544769D-07 0.257014175057D+01-0.558793544769D-08
    0.926742369214D+00 0.119250000000D+03 0.146153928337D+01-0.822284285107D-08
   -0.150006240068D-10 0.100000000000D+01 0.191800000000D+04 0.000000000000D+00
    0.200000000000D+01 0.000000000000D+00-0.838190317154D-08 0.150000000000D+02
    0.308190000000D+06 0.000000000000D+00 0.000000000000D+00 0.000000000000D+00
 1 16 10 12 14  0  0.0 0.369641929865D-04 0.125055521494D-11 0.000000000000D+00
    0.850000000000D+02-0.910312500000D+02 0.476519848964D-08 0.165195228509D+01
   -0.464916229248D-05 0.592893850990D-02 0.614859163761D-05 0.515370202064D+04
    0.309600000000D+06-0.707805156708D-07 0.161762688292D+01 0.651925802231D-07
    0.965079793504D+00 0.264687500000D+03 0.562839378691D+00-0.832177520677D-08
   -0.374301305437D-09 0.100000000000D+01 0.191800000000D+04 0.000000000000D+00
    0.200000000000D+01 0.000000000000D+00 0.512227416039D-08 0.850000000000D+02
    0.303780000000D+06 0.400000000000D+01 0.000000000000D+00 0.000000000000D+00
 2 16 10 12 14  0  0.0 0.540866050869D-03-0.511590769747D-11 0.000000000000D+00
    0.720000000000D+02-0.896250000000D+02 0.505521056981D-08 0.212243681450D+01
   -0.496953725815D-05 0.160143629182D-01 0.577233731747D-05 0.515365442657D+04
    0.309600000000D+06-0.689178705216D-07 0.156910611660D+01-0.352039933205D-06
    0.943903099021D+00 0.260500000000D+03-0.207895904718D+01-0.830963184381D-08
   -0.310727228751D-09 0.100000000000D+01 0.191800000000D+04 0.000000000000D+00
    0.200000000000D+01 0.000000000000D+00-0.204890966415D-07 0.720000000000D+02
    0.305370000000D+06 0.400000000000D+01 0.000000000000D+00 0.000000000000D+00
 3 16 10 12 14  0  0.0-0.921129249036D-04-0.216004991671D-11 0.000000000000D+00
    0.170000000000D+02-0.151250000000D+02 0.442339853802D-08 0.446693968974D+00
   -0.754371285439D-06 0.242812093347D-03 0.118929892778D-04 0.515360848427D+04
    0.309600000000D+06 0.428408384323D-07 0.265955952263D+01-0.186264514923D-07
    0.959779516955D+00 0.147343750000D+03 0.648618866174D+00-0.790747223510D-08
    0.257153568621D-10 0.100000000000D+01 0.191800000000D+04 0.000000000000D+00
    0.200000000000D+01 0.000000000000D+00 0.139698386192D-08 0.170000000000D+02
    0.302820000000D+06 0.400000000000D+01 0.000000000000D+00 0.000000000000D+00
 4 16 10 12 14  0  0.0 0.727921724320D-05 0.306954461848D-11 0.000000000000D+00
    0.300000000000D+02 0.417500000000D+02 0.468340936851D-08-0.105697534941D+01
    0.225007534027D-05 0.839872623328D-02 0.557303428650D-05 0.515359375000D+04
    0.309600000000D+06-0.113621354103D-06-0.246447414781D+01 0.186264514923D-07
    0.966341143416D+00 0.278343750000D+03-0.100132933234D+01-0.836249118847D-08
    0.267868300647D-09 0.100000000000D+01 0.191800000000D+04 0.000000000000D+00
    0.280000000000D+01 0.630000000000D+02-0.372529029846D-08 0.300000000000D+02
    0.302400000000D+06 0.400000000000D+01 0.000000000000D+00 0.000000000000D+00
 5 16 10 12 14  0  0.0-0.850372016430D-04 0.250111042988D-11 0.000000000000D+00
    0.650000000000D+02-0.231250000000D+01 0.465019356355D-08-0.169247839136D+01
   -0.171363353729D-06 0.480909750331D-02 0.118948519230D-04 0.515361746025D+04
    0.309600000000D+06 0.000000000000D+00 0.264581457780D+01-0.819563865662D-07
    0.946796154112D+00 0.143562500000D+03 0.528990763457D+00-0.798747556985D-08
    0.696457613802D-10 0.100000000000D+01 0.191800000000D+04 0.000000000000D+00
    0.200000000000D+01 0.000000000000D+00-0.107102096081D-07 0.650000000000D+02
    0.302400000000D+06 0.000000000000D+00 0.000000000000D+00 0.000000000000D+00
 6 16 10 12 14  0  0.0 0.258576590568D-03 0.511590769747D-11 0.000000000000D+00
    0.240000000000D+02-0.806875000000D+02 0.464983654150D-08 0.232686509808D+01
   -0.420585274696D-05 0.205437652767D-03 0.607222318649D-05 0.515378393173D+04
    0.309600000000D+06-0.633299350738D-07 0.160922267895D+01-0.335276126862D-07
    0.964886272849D+00 0.262468750000D+03-0.175672321124D+01-0.823891461244D-08
   -0.359657838335D-09 0.100000000000D+01 0.191800000000D+04 0.000000000000D+00
    0.200000000000D+01 0.000000000000D+00 0.419095158577D-08 0.240000000000D+02
    0.302400000000D+06 0.400000000000D+01 0.000000000000D+00 0.000000000000D+00
 7 16 10 12 14  0  0.0 0.420040450990D-03-0.306954461848D-11 0.000000000000D+00
    0.440000000000D+02-0.443437500000D+02 0.457983362560D-08 0.992476650351D+00
   -0.218302011490D-05 0.100437034853D-01 0.686943531036D-05 0.515362186432D+04
    0.309600000000D+06-0.197440385819D-06-0.150700722053D+01 0.111758708954D-06
    0.964535620163D+00 0.251281250000D+03-0.262109062443D+01-0.821284209784D-08
   -0.514307137242D-09 0.100000000000D+01 0.191800000000D+04 0.000000000000D+00
    0.200000000000D+01 0.000000000000D+00-0.111758708954D-07 0.440000000000D+02
    0.302400000000D+06 0.400000000000D+01 0.000000000000D+00 0.000000000000D+00
 8 16 10 12 14  0  0.0-0.352021306753D-04-0.136424205266D-11 0.000000000000D+00
    0.900000000000D+02 0.563125000000D+02 0.485055918812D-08-0.169499154272D+01
    0.299327075481D-05 0.181278458331D-02 0.474974513054D-05 0.515375819206D+04
    0.309600000000D+06-0.115483999252D-06 0.555881177082D+00 0.316649675369D-07
    0.964675480983D+00 0.292468750000D+03-0.101641412872D+01-0.839106380720D-08
    0.393230665350D-09 0.100000000000D+01 0.191800000000D+04 0.000000000000D+00
    0.200000000000D+01 0.000000000000D+00 0.512227416039D-08 0.900000000000D+02
    0.302400000000D+06 0.400000000000D+01 0.000000000000D+00 0.000000000000D+00
 9 16 10 12 14  0  0.0 0.223682727665D-03 0.727595761418D-11 0.000000000000D+00
    0.610000000000D+02 0.560625000000D+02 0.492091926175D-08-0.241717731142D+01
    0.282749533653D-05 0.596154015511D-03 0.593625009060D-05 0.515376382065D+04
    0.309600000000D+06 0.000000000000D+00-0.258585326107D+01 0.558793544769D-08
    0.954642655670D+00 0.263500000000D+03 0.191013870899D+01-0.833141846559D-08
    0.233224000430D-09 0.100000000000D+01 0.191800000000D+04 0.000000000000D+00
    0.200000000000D+01 0.000000000000D+00 0.139698386192D-08 0.610000000000D+02
    0.309150000000D+06 0.400000000000D+01 0.000000000000D+00 0.000000000000D+00
10 16 10 12 14  0  0.0-0.107047613710D-03-0.329691829393D-11 0.000000000000D+00
    0.370000000000D+02-0.115937500000D+02 0.432875173846D-08-0.437948671029D+00
   -0.804662704468D-06 0.179896701593D-02 0.131726264954D-04 0.515368545532D+04
    0.309600000000D+06 0.763684511185D-07 0.265567320322D+01 0.540167093277D-07
    0.959989733894D+00 0.126187500000D+03-0.289490142742D+01-0.788497129785D-08
    0.964325882329D-11 0.100000000000D+01 0.191800000000D+04 0.000000000000D+00
    0.200000000000D+01 0.000000000000D+00 0.232830643654D-08 0.370000000000D+02
    0.302400000000D+06 0.400000000000D+01 0.000000000000D+00 0.000000000000D+00
11 16 10 12 14  0  0.0-0.666740816087D-03-0.909494701773D-12 0.000000000000D+00
    0.105000000000D+03-0.522812500000D+02 0.662349018067D-08 0.108817878347D+01
   -0.301934778690D-05 0.168250555871D-01 0.292062759399D-05 0.515367618751D+04
    0.309600000000D+06-0.206753611565D-06 0.123075001768D+01-0.260770320892D-06
    0.897835059691D+00 0.293500000000D+03 0.158628949091D+01-0.947182311088D-08
   -0.122147945095D-09 0.100000000000D+01 0.191800000000D+04 0.000000000000D+00
    0.400000000000D+01 0.000000000000D+00-0.121071934700D-07 0.105000000000D+03
    0.302400000000D+06 0.400000000000D+01 0.000000000000D+00 0.000000000000D+00
